BEIDOU-2 IGSO-1 (C06)   
1 36828U 10036A   23260.34275795 -.00000115  00000+0  00000+0 0  9998
2 36828  54.2346 172.0554 0036522 188.1895 225.2223  1.00249882 48144
BEIDOU-2 G4 (C04)       
1 37210U 10057A   23260.77757549 -.00000106  00000+0  00000+0 0  9996
2 37210   1.2043  61.4281 0006314 154.0503 220.8277  1.00273665 47222
BEIDOU-2 IGSO-2 (C07)   
1 37256U 10068A   23260.72320840 -.00000173  00000+0  00000+0 0  9997
2 37256  49.3861 284.1430 0032300 213.2978 227.6440  1.00279908 46728
BEIDOU-2 IGSO-3 (C08)   
1 37384U 11013A   23260.84910514 -.00000162  00000+0  00000+0 0  9994
2 37384  60.9597  49.7654 0028329 175.3852 185.2703  1.00278563 45617
BEIDOU-2 IGSO-4 (C09)   
1 37763U 11038A   23260.22641200 -.00000076  00000+0  00000+0 0  9991
2 37763  54.5085 174.5997 0111869 228.0034 130.3312  1.00271679 44578
BEIDOU-2 IGSO-5 (C10)   
1 37948U 11073A   23260.41852640 -.00000124  00000+0  00000+0 0  9992
2 37948  49.5121 283.8153 0095055 220.7263  98.0758  1.00269895 43061
BEIDOU-2 G5 (C05)       
1 38091U 12008A   23260.80806762  .00000062  00000+0  00000+0 0  9998
2 38091   1.7393  68.6033 0003537 174.5098 103.0831  1.00277175 42411
BEIDOU-2 M3 (C11)       
1 38250U 12018A   23260.08535665 -.00000077  00000+0  00000+0 0  9994
2 38250  56.5040 338.4526 0023904 255.9641 103.8325  1.86231250 77241
BEIDOU-2 M4 (C12)       
1 38251U 12018B   23260.01674194 -.00000077  00000+0  00000+0 0  9999
2 38251  56.4146 337.7470 0014781 255.8023 104.0964  1.86231956 77249
BEIDOU-2 M6 (C14)       
1 38775U 12050B   23259.18968416  .00000030  00000+0  00000+0 0  9993
2 38775  55.6999  96.3696 0011329 340.2504  19.7902  1.86231324 74940
BEIDOU-2 G6 (C02)       
1 38953U 12059A   23260.98868921 -.00000169  00000+0  00000+0 0  9994
2 38953   1.8578  81.8687 0007417 311.7551  42.9643  1.00275013 39985
BEIDOU-3S IGSO-1S (C31) 
1 40549U 15019A   23260.61697635 -.00000134  00000+0  00000+0 0  9991
2 40549  51.0764 307.4165 0040770 196.4893 167.2838  1.00253842 31005
BEIDOU-3S M2S (C57)     
1 40748U 15037A   23260.21936467 -.00000076  00000+0  00000+0 0  9992
2 40748  55.6546 336.3317 0011745 242.5661 117.3784  1.86233294 55421
BEIDOU-3S M1S (C58)     
1 40749U 15037B   23260.48948639 -.00000075  00000+0  00000+0 0  9995
2 40749  55.6574 336.3087 0003642 297.4555  62.5716  1.86232982 55435
BEIDOU-3S IGSO-2S (C56) 
1 40938U 15053A   23260.37773130 -.00000108  00000+0  00000+0 0  9990
2 40938  50.7915 270.5928 0047698 194.8660 122.9471  1.00280534 29284
BEIDOU-2 IGSO-6 (C13)   
1 41434U 16021A   23260.33537949 -.00000141  00000+0  00000+0 0  9997
2 41434  58.7733  48.1347 0047843 218.1984 307.0930  1.00280777 27415
BEIDOU-2 G7 (C03)       
1 41586U 16037A   23260.54901170 -.00000347  00000+0  00000+0 0  9994
2 41586   1.8998  68.5839 0006679 343.9309 251.7273  1.00264368 26723
BEIDOU-3 M1 (C19)       
1 43001U 17069A   23259.49295605  .00000030  00000+0  00000+0 0  9993
2 43001  55.8513  96.4203 0007457 300.7730  59.2368  1.86231726 39892
BEIDOU-3 M2 (C20)       
1 43002U 17069B   23259.96666415  .00000030  00000+0  00000+0 0  9997
2 43002  55.8512  96.4401 0005881 334.6941  25.3585  1.86231223 39898
BEIDOU-3 M7 (C27)       
1 43107U 18003A   23259.71743303 -.00000079  00000+0  00000+0 0  9991
2 43107  55.1111 337.0599 0003248  77.6790 282.4194  1.86232561 38645
BEIDOU-3 M8 (C28)       
1 43108U 18003B   23259.65563735 -.00000079  00000+0  00000+0 0  9994
2 43108  55.1042 337.0488 0004240 244.9679 115.0502  1.86231024 38652
BEIDOU-3 M4 (C22)       
1 43207U 18018A   23260.09791900  .00000029  00000+0  00000+0 0  9991
2 43207  55.8104  96.4985 0004626  17.1527 342.9438  1.86231636 38047
BEIDOU-3 M3 (C21)       
1 43208U 18018B   23258.01678243  .00000032  00000+0  00000+0 0  9999
2 43208  55.8085  96.5724 0005521 319.7345  40.3131  1.86231620 38000
BEIDOU-3 M9 (C29)       
1 43245U 18029A   23259.85040990 -.00000076  00000+0  00000+0 0  9996
2 43245  55.0049 334.7885 0001487 221.3952 138.6582  1.86232845 37197
BEIDOU-3 M10 (C30)      
1 43246U 18029B   23259.78042521 -.00000076  00000+0  00000+0 0  9991
2 43246  55.0022 334.8190 0002743 351.0147   9.0450  1.86233045 37178
BEIDOU-2 IGSO-7 (C16)   
1 43539U 18057A   23259.65658000 -.00000133  00000+0  00000+0 0  9992
2 43539  55.1189 171.7519 0064082 230.9648 302.6639  1.00280184 19078
BEIDOU-3 M5 (C23)       
1 43581U 18062A   23261.07452235  .00000039  00000+0  00000+0 0  9990
2 43581  54.1754 216.4444 0004957 284.6988  75.2180  1.86231975 34950
BEIDOU-3 M6 (C24)       
1 43582U 18062B   23259.86668293  .00000026  00000+0  00000+0 0  9994
2 43582  54.1752 216.4751 0005278 359.4105   0.5544  1.86229849 34939
BEIDOU-3 M12 (C26)      
1 43602U 18067A   23260.33982129  .00000032  00000+0  00000+0 0  9990
2 43602  54.2627 215.1153 0007125  13.7483 346.2395  1.86231536 34422
BEIDOU-3 M11 (C25)      
1 43603U 18067B   23260.47364856  .00000033  00000+0  00000+0 0  9998
2 43603  54.2597 215.0764 0004203 359.1715   0.7970  1.86231510 34451
BEIDOU-3 M13 (C32)      
1 43622U 18072A   23259.89565511  .00000029  00000+0  00000+0 0  9995
2 43622  55.7802  96.0447 0004217 296.9701  63.0679  1.86231648 33954
BEIDOU-3 M14 (C33)      
1 43623U 18072B   23259.22416363  .00000030  00000+0  00000+0 0  9995
2 43623  55.7814  96.0598 0002790 349.9977  10.0806  1.86231677 33948
BEIDOU-3 M16 (C35)      
1 43647U 18078A   23259.38686896 -.00000077  00000+0  00000+0 0  9996
2 43647  54.9012 334.9254 0005911   7.2190 352.8535  1.86227391 33446
BEIDOU-3 M15 (C34)      
1 43648U 18078B   23260.05411262 -.00000076  00000+0  00000+0 0  9995
2 43648  54.8963 334.9063 0002750  17.7319 342.3423  1.86232318 33485
BEIDOU-3 G1 (C59)       
1 43683U 18085A   23261.02827319 -.00000270  00000+0  00000+0 0  9990
2 43683   1.5417 123.4665 0003036 352.2860  31.1974  1.00274572 17998
BEIDOU-3 M17 (C36)      
1 43706U 18093A   23260.20202742  .00000030  00000+0  00000+0 0  9994
2 43706  54.2580 216.3924 0010073 282.1280  77.7263  1.86232090 32847
BEIDOU-3 M18 (C37)      
1 43707U 18093B   23260.06813466  .00000029  00000+0  00000+0 0  9998
2 43707  54.2588 216.3885 0008440 307.7069  52.1830  1.86229923 32833
BEIDOU-3 IGSO-1 (C38)   
1 44204U 19023A   23260.22668567 -.00000195  00000+0  00000+0 0  9998
2 44204  57.2397  48.1086 0023892 195.1441 314.1974  1.00278987 16272
BEIDOU-2 G8 (C01)       
1 44231U 19027A   23260.77080584 -.00000241  00000+0  00000+0 0  9991
2 44231   1.9875  81.0602 0006610 132.1923 205.1385  1.00267925 16011
BEIDOU-3 IGSO-2 (C39)   
1 44337U 19035A   23259.40125659 -.00000134  00000+0  00000+0 0  9999
2 44337  55.1520 167.6869 0032828 196.5042 255.0677  1.00271182 15598
BEIDOU-3 M24 (C46)      
1 44542U 19061A   23260.13974959  .00000030  00000+0  00000+0 0  9997
2 44542  54.4853 216.6266 0008467 341.9562  17.9804  1.86231549 27090
BEIDOU-3 M23 (C45)      
1 44543U 19061B   23260.52402994  .00000034  00000+0  00000+0 0  9990
2 44543  54.4837 216.5831 0005915 326.6337 202.8546  1.86231922 27098
BEIDOU-3 IGSO-3 (C40)   
1 44709U 19073A   23260.48726047 -.00000150  00000+0  00000+0 0  9990
2 44709  56.5123 291.6127 0035254 190.2562 169.7514  1.00278173 14377
BEIDOU-3 M22 (C44)      
1 44793U 19078A   23259.98517174 -.00000076  00000+0  00000+0 0  9997
2 44793  54.7492 334.8705 0004761  16.0265 344.0531  1.86232326 25952
BEIDOU-3 M21 (C43)      
1 44794U 19078B   23259.57875938 -.00000077  00000+0  00000+0 0  9999
2 44794  54.7232 334.8663 0002740   4.3399 355.7266  1.86232765 25941
BEIDOU-3 M19 (C41)      
1 44864U 19090A   23261.09021941  .00000028  00000+0  00000+0 0  9993
2 44864  55.7154  96.1913 0015283 274.8834 212.3169  1.86231894 25541
BEIDOU-3 M20 (C42)      
1 44865U 19090B   23259.74345645  .00000030  00000+0  00000+0 0  9996
2 44865  55.7160  96.2691 0013101 290.5006 103.5414  1.86231912 25518
BEIDOU-3 G2 (C60)       
1 45344U 20017A   23260.54300715 -.00000135  00000+0  00000+0 0  9996
2 45344   2.0560  16.8246 0003130 161.0370  93.8883  1.00271943 13197
BEIDOU-3 G3 (C61)       
1 45807U 20040A   23260.58341243 -.00000348  00000+0  00000+0 0  9997
2 45807   0.6064 346.3610 0005974 328.3122   2.1774  1.00269162 12002
BEIDOU-3 G4             
1 56564U 23066A   23260.77387807 -.00000108  00000+0  00000+0 0  9991
2 56564   2.8139 288.7426 0006746 214.6250 291.6984  1.00272961  1346
